KUIPER-00008            
1 63724U 25088A   25242.67572339  .00006651  00000+0  56490-3 0  9996
2 63724  51.8893 237.8650 0010810 172.6645 187.4486 14.98902602 19403
KUIPER-00009            
1 63725U 25088B   25242.91668981  .00024997  00000+0  32961-2 0  9992
2 63725  51.9008 230.1984 0013099 187.7644  27.7903 14.79875441  4848
KUIPER-00010            
1 63726U 25088C   25242.93847040  .00025533  00000+0  70388-3 0  9993
2 63726  51.8632 219.9374 0008604 188.1604 171.9243 15.36922021 19291
KUIPER-00011            
1 63727U 25088D   25242.91668981 -.00283357  00000+0 -11988-1 0  9998
2 63727  51.8646 220.9287 0009158 191.9129 266.5646 15.23905965  5917
KUIPER-00012            
1 63728U 25088E   25242.97088668  .00025379  00000+0  70525-3 0  9993
2 63728  51.8551 220.0482 0009671 199.1881 160.8742 15.36667816 19389
KUIPER-00013            
1 63729U 25088F   25242.67050914 -.00057128  00000+0 -76058-2 0  9999
2 63729  51.9016 232.7315 0008265 127.9096 232.2614 14.79474762 19280
KUIPER-00014            
1 63730U 25088G   25242.94136806  .00002186  00000+0  31635-3 0  9991
2 63730  51.9011 232.5210 0008145 177.9649 182.1348 14.79845285 19127
KUIPER-00015            
1 63731U 25088H   25242.42048389  .00000784  00000+0  12846-3 0  9998
2 63731  51.8985 247.0280 0010543 164.2369 195.8924 14.81221255 19330
